[
    {
        "CCSDS_OMM_VERS": "3.0",
        "COMMENT": "GENERATED VIA SPACE-TRACK.ORG API",
        "CREATION_DATE": "2025-04-09T19:37:26",
        "ORIGINATOR": "18 SPCS",
        "OBJECT_NAME": "BEIDOU IGSO-6",
        "OBJECT_ID": "2016-021A",
        "CENTER_NAME": "EARTH",
        "REF_FRAME": "TEME",
        "TIME_SYSTEM": "UTC",
        "MEAN_ELEMENT_THEORY": "SGP4",
        "EPOCH": "2025-04-09T14:40:10.238304",
        "MEAN_MOTION": "1.00258086",
        "ECCENTRICITY": "0.00525970",
        "INCLINATION": "59.6168",
        "RA_OF_ASC_NODE": "42.3641",
        "ARG_OF_PERICENTER": "230.3227",
        "MEAN_ANOMALY": "239.0707",
        "EPHEMERIS_TYPE": "0",
        "CLASSIFICATION_TYPE": "U",
        "NORAD_CAT_ID": "41434",
        "ELEMENT_SET_NO": "999",
        "REV_AT_EPOCH": "3313",
        "BSTAR": "0.00000000000000",
        "MEAN_MOTION_DOT": "-0.00000157",
        "MEAN_MOTION_DDOT": "0.0000000000000",
        "SEMIMAJOR_AXIS": "42168.573",
        "PERIOD": "1436.293",
        "APOAPSIS": "36012.232",
        "PERIAPSIS": "35568.644",
        "OBJECT_TYPE": "PAYLOAD",
        "RCS_SIZE": "LARGE",
        "COUNTRY_CODE": "PRC",
        "LAUNCH_DATE": "2016-03-29",
        "SITE": "XSC",
        "DECAY_DATE": null,
        "FILE": "4696786",
        "GP_ID": "285225626",
        "TLE_LINE0": "0 BEIDOU IGSO-6",
        "TLE_LINE1": "1 41434U 16021A   25099.61122961 -.00000157  00000-0  00000-0 0  9993",
        "TLE_LINE2": "2 41434  59.6168  42.3641 0052597 230.3227 239.0707  1.00258086 33138"
    }
]